[{"OBJECT_NAME":"STARLINK-35367","OBJECT_ID":"2025-224B","EPOCH":"2026-03-09T06:46:30.245664","MEAN_MOTION":15.30192804,"ECCENTRICITY":0.00015155,"INCLINATION":53.1613,"RA_OF_ASC_NODE":13.1257,"ARG_OF_PERICENTER":45.5217,"MEAN_ANOMALY":314.5907,"EPHEMERIS_TYPE":0,"CLASSIFICATION_TYPE":"U","NORAD_CAT_ID":65883,"ELEMENT_SET_NO":999,"REV_AT_EPOCH":2476,"BSTAR":0.00096613493,"MEAN_MOTION_DOT":0.00028358,"MEAN_MOTION_DDOT":0},{"OBJECT_NAME":"TRANSPORTER-1 OBJECT L","OBJECT_ID":"2021-006L","EPOCH":"2026-03-09T22:38:42.795168","MEAN_MOTION":15.33192932,"ECCENTRICITY":0.00114726,"INCLINATION":97.2368,"RA_OF_ASC_NODE":117.6447,"ARG_OF_PERICENTER":180.5165,"MEAN_ANOMALY":179.6068,"EPHEMERIS_TYPE":0,"CLASSIFICATION_TYPE":"U","NORAD_CAT_ID":47423,"ELEMENT_SET_NO":999,"REV_AT_EPOCH":28445,"BSTAR":0.00025636794,"MEAN_MOTION_DOT":8.162e-5,"MEAN_MOTION_DDOT":0}]
